{
"type": "FeatureCollection",
"name": "CM",
"crs": { "type": "name", "properties": { "name": "urn:ogc:def:crs:OGC:1.3:CRS84" } },
"features": [
{ "type": "Feature", "properties": { "OBJECTID": 1, "id": null, "Name": "เทศบาลนครเชียงใหม่", "description": null, "timestamp": null, "begin": null, "end": null, "altitudeMode": null, "tessellate": -1, "extrude": 0, "visibility": -1, "drawOrder": null, "icon": null, "_id": "relation/18271830", "admin_level": "7", "boundary": "administrative", "name_en": "Chiang Mai City Municipality", "type": "boundary", "wikidata": "Q52028", "Shape_Length": 0.34789956309226472, "Shape_Area": 0.0035482394465052572 }, "geometry": { "type": "MultiPolygon", "coordinates": [ [ [ [ 98.975260700000035, 18.842453800000044 ], [ 98.975626200000079, 18.84181140000004 ], [ 98.976699100000076, 18.841557500000022 ], [ 98.977407200000073, 18.840623400000027 ], [ 98.977664700000048, 18.840455800000029 ], [ 98.978217200000074, 18.840598 ], [ 98.979070200000081, 18.840968600000053 ], [ 98.981800700000065, 18.842466300000069 ], [ 98.985417, 18.844169600000043 ], [ 98.985480800000062, 18.844017600000029 ], [ 98.985586800000078, 18.843822200000034 ], [ 98.985850200000073, 18.843327300000055 ], [ 98.985918600000048, 18.843229600000029 ], [ 98.986058400000047, 18.843048100000033 ], [ 98.986072500000034, 18.843021200000067 ], [ 98.986223700000039, 18.843005900000037 ], [ 98.986784200000045, 18.842486600000029 ], [ 98.987894600000061, 18.841755500000033 ], [ 98.988715400000046, 18.841044700000054 ], [ 98.989284, 18.840339 ], [ 98.989804400000082, 18.839389600000061 ], [ 98.990228200000047, 18.83852150000007 ], [ 98.990619800000047, 18.837333400000034 ], [ 98.991188400000055, 18.835784900000078 ], [ 98.991794600000048, 18.834089100000028 ], [ 98.992272, 18.833185400000048 ], [ 98.992931800000065, 18.832632 ], [ 98.993618500000082, 18.83222580000006 ], [ 98.994627, 18.831738400000063 ], [ 98.99566770000007, 18.831098600000075 ], [ 98.996526, 18.830469100000073 ], [ 98.997073200000045, 18.82991050000004 ], [ 98.997781300000042, 18.828783400000077 ], [ 98.997867100000065, 18.828204600000049 ], [ 98.997781300000042, 18.827514 ], [ 98.997298500000056, 18.826437600000077 ], [ 98.996171900000036, 18.825046400000076 ], [ 98.995506800000044, 18.824264500000027 ], [ 98.995174200000065, 18.823624700000039 ], [ 98.995163400000081, 18.822670100000039 ], [ 98.995581900000047, 18.821624200000031 ], [ 98.996182700000077, 18.820821900000055 ], [ 98.997277, 18.819938400000069 ], [ 98.998736100000087, 18.818811200000027 ], [ 98.999605200000076, 18.817815900000028 ], [ 99.000742400000036, 18.816658200000063 ], [ 99.001804600000071, 18.815094300000055 ], [ 99.002743400000043, 18.81333230000007 ], [ 99.003097400000058, 18.812316700000054 ], [ 99.003124200000059, 18.811483900000042 ], [ 99.003381700000034, 18.810651200000052 ], [ 99.00347830000004, 18.810387100000071 ], [ 99.005152, 18.81029570000004 ], [ 99.007152900000051, 18.810153500000069 ], [ 99.010457400000064, 18.809889500000054 ], [ 99.011449800000037, 18.809747300000026 ], [ 99.012605800000074, 18.809409600000038 ], [ 99.013254900000049, 18.809176 ], [ 99.014094500000056, 18.808767300000056 ], [ 99.014896400000055, 18.808312800000067 ], [ 99.01578690000008, 18.80765770000005 ], [ 99.016369, 18.80714990000007 ], [ 99.017098500000031, 18.806355200000041 ], [ 99.01762430000008, 18.805636700000036 ], [ 99.01815, 18.804778500000054 ], [ 99.018445, 18.804227500000025 ], [ 99.020344, 18.804283400000031 ], [ 99.019834400000036, 18.801079100000038 ], [ 99.021438400000079, 18.797110400000065 ], [ 99.022151800000074, 18.795442200000025 ], [ 99.022822400000052, 18.79396440000005 ], [ 99.023659200000054, 18.792324 ], [ 99.024587300000064, 18.790790300000026 ], [ 99.025611900000058, 18.788972200000046 ], [ 99.026303900000073, 18.787204900000063 ], [ 99.026711600000056, 18.785965700000077 ], [ 99.027012, 18.784437 ], [ 99.027183600000058, 18.783279100000073 ], [ 99.028251200000057, 18.775198600000067 ], [ 99.02897, 18.770211 ], [ 99.029812200000038, 18.764298800000063 ], [ 99.02832630000006, 18.763963600000068 ], [ 99.018209, 18.760479100000055 ], [ 99.015035900000044, 18.759338800000023 ], [ 99.013788700000077, 18.759008600000072 ], [ 99.011672400000066, 18.758670800000061 ], [ 99.009145800000056, 18.758289900000022 ], [ 99.007415800000047, 18.757929200000035 ], [ 99.003628500000048, 18.757055600000058 ], [ 99.001976300000081, 18.756721600000049 ], [ 99.001415700000052, 18.756774900000039 ], [ 99.000970400000085, 18.756875200000025 ], [ 99.000538600000084, 18.757093600000076 ], [ 99.000130900000045, 18.757370500000036 ], [ 98.999310800000046, 18.758237800000074 ], [ 98.998987600000078, 18.758537500000045 ], [ 98.998225200000036, 18.759196600000053 ], [ 98.995608700000048, 18.761362900000051 ], [ 98.994171, 18.762521 ], [ 98.991325200000063, 18.764877800000022 ], [ 98.990922900000044, 18.765136900000073 ], [ 98.97635850000006, 18.767775500000027 ], [ 98.976135800000066, 18.769972300000063 ], [ 98.975207800000078, 18.770378600000072 ], [ 98.973421400000063, 18.77143 ], [ 98.972885, 18.771633100000031 ], [ 98.970766100000048, 18.772019100000023 ], [ 98.970771400000046, 18.772913100000039 ], [ 98.972718700000087, 18.772913100000039 ], [ 98.972804500000052, 18.773299100000031 ], [ 98.973341, 18.773461600000076 ], [ 98.973448300000086, 18.77435040000006 ], [ 98.973813100000086, 18.775213800000074 ], [ 98.973780900000065, 18.77584870000004 ], [ 98.97578180000005, 18.776615600000071 ], [ 98.976023200000043, 18.777052400000059 ], [ 98.976023200000043, 18.777397800000074 ], [ 98.975915900000075, 18.777692400000035 ], [ 98.975685200000044, 18.778078400000027 ], [ 98.975572600000078, 18.778332300000045 ], [ 98.975564500000075, 18.778779200000031 ], [ 98.97543040000005, 18.779228700000033 ], [ 98.975317800000084, 18.779256700000076 ], [ 98.975513600000056, 18.781425300000024 ], [ 98.975706700000046, 18.78148630000004 ], [ 98.975961500000039, 18.783736100000056 ], [ 98.975744200000065, 18.786054600000057 ], [ 98.97522390000006, 18.786113 ], [ 98.974086600000078, 18.786113 ], [ 98.973947200000055, 18.786204400000031 ], [ 98.973872100000051, 18.786448200000052 ], [ 98.973496600000033, 18.786382100000026 ], [ 98.972879600000056, 18.786387200000036 ], [ 98.972793800000034, 18.786245 ], [ 98.972777700000051, 18.784406500000046 ], [ 98.973024500000065, 18.78431 ], [ 98.973233700000037, 18.783197800000039 ], [ 98.972241300000064, 18.783411100000023 ], [ 98.971661900000072, 18.781562400000041 ], [ 98.970798200000047, 18.781598 ], [ 98.97065340000006, 18.781643700000075 ], [ 98.970243, 18.783563500000071 ], [ 98.965136100000052, 18.783536800000036 ], [ 98.962818700000071, 18.787022 ], [ 98.959114500000055, 18.786844300000041 ], [ 98.960521400000061, 18.790956600000072 ], [ 98.95728530000008, 18.79208280000006 ], [ 98.953138600000045, 18.793294 ], [ 98.950561, 18.794055800000024 ], [ 98.946079, 18.79507650000005 ], [ 98.945918100000085, 18.798646600000041 ], [ 98.942645800000037, 18.797691900000075 ], [ 98.944126400000073, 18.801485300000024 ], [ 98.943246600000066, 18.804120900000044 ], [ 98.945843, 18.80353180000003 ], [ 98.945354800000075, 18.80676150000005 ], [ 98.946395500000051, 18.810280500000033 ], [ 98.947409400000083, 18.811179300000049 ], [ 98.947522, 18.810823800000037 ], [ 98.947650800000076, 18.810757800000033 ], [ 98.948836300000039, 18.810727300000053 ], [ 98.952097900000069, 18.80978280000005 ], [ 98.967767400000071, 18.801510700000051 ], [ 98.968381600000043, 18.802780200000029 ], [ 98.969036, 18.803920300000073 ], [ 98.969604700000048, 18.804857200000072 ], [ 98.970849200000032, 18.806268900000077 ], [ 98.972075, 18.807457100000022 ], [ 98.973362400000042, 18.808465100000035 ], [ 98.974403100000075, 18.809176 ], [ 98.97605, 18.810064700000055 ], [ 98.977715700000033, 18.810755300000039 ], [ 98.97886630000005, 18.811153900000022 ], [ 98.979864100000043, 18.811402700000031 ], [ 98.98151370000005, 18.811702300000036 ], [ 98.98205820000004, 18.811755600000026 ], [ 98.979472500000043, 18.818336400000078 ], [ 98.978823400000067, 18.820083100000033 ], [ 98.978394300000048, 18.821641900000031 ], [ 98.977755900000034, 18.823962400000028 ], [ 98.977283800000066, 18.825932400000056 ], [ 98.977037100000075, 18.827049400000078 ], [ 98.976940500000069, 18.827349 ], [ 98.97675810000004, 18.827882100000068 ], [ 98.975674500000082, 18.83009080000005 ], [ 98.975014700000031, 18.831603800000039 ], [ 98.974285100000031, 18.833512900000073 ], [ 98.970935300000065, 18.841859300000067 ], [ 98.972764100000063, 18.84250940000004 ], [ 98.973149600000056, 18.841587300000072 ], [ 98.974554900000044, 18.842144500000074 ], [ 98.974847500000067, 18.842260500000066 ], [ 98.974865100000045, 18.842267500000048 ], [ 98.975260700000035, 18.842453800000044 ] ] ] ] } }
]
}
