{
  "type": "FeatureCollection",
  "features": [
    {
      "type": "Feature",
      "properties": {
        "image_id": "CM_31",
        "polygon_type": "retained_building_point_coverage",
        "point_count": 76,
        "description": "Convex hull of retained approximate building points; not a camera footprint."
      },
      "geometry": {
        "type": "Polygon",
        "coordinates": [
          [
            [
              99.00016279763148,
              18.8003844842051
            ],
            [
              99.00708751781761,
              18.801278793754754
            ],
            [
              99.00789676983642,
              18.8090371591691
            ],
            [
              99.00479101193461,
              18.811382799221008
            ],
            [
              99.00430798895327,
              18.811694654678803
            ],
            [
              99.00412477998472,
              18.81176773864247
            ],
            [
              99.00206897544096,
              18.811064097557534
            ],
            [
              99.0014907507593,
              18.810672128400267
            ],
            [
              99.001183099951,
              18.809780331840226
            ],
            [
              99.00092069464256,
              18.808637184113866
            ],
            [
              99.00046489444378,
              18.804574152687223
            ],
            [
              99.00016279763148,
              18.8003844842051
            ]
          ]
        ]
      }
    },
    {
      "type": "Feature",
      "properties": {
        "image_id": "CM_32",
        "polygon_type": "retained_building_point_coverage",
        "point_count": 44,
        "description": "Convex hull of retained approximate building points; not a camera footprint."
      },
      "geometry": {
        "type": "Polygon",
        "coordinates": [
          [
            [
              99.01319083945783,
              18.78495765679999
            ],
            [
              99.0117435712349,
              18.783208295765828
            ],
            [
              99.01320378375439,
              18.781547587380444
            ],
            [
              99.01352881604751,
              18.78134497648912
            ],
            [
              99.0154708849471,
              18.781062597249072
            ],
            [
              99.01874799569632,
              18.781714249255433
            ],
            [
              99.01951915703617,
              18.782138169500566
            ],
            [
              99.02000277198758,
              18.78271666760051
            ],
            [
              99.02013090519357,
              18.783107777388516
            ],
            [
              99.01871337707794,
              18.784885753453263
            ],
            [
              99.0176078257205,
              18.786015765128155
            ],
            [
              99.01439229316644,
              18.785308139032146
            ],
            [
              99.01319083945783,
              18.78495765679999
            ]
          ]
        ]
      }
    },
    {
      "type": "Feature",
      "properties": {
        "image_id": "CM_34",
        "polygon_type": "retained_building_point_coverage",
        "point_count": 40,
        "description": "Convex hull of retained approximate building points; not a camera footprint."
      },
      "geometry": {
        "type": "Polygon",
        "coordinates": [
          [
            [
              98.99695141636025,
              18.800056282879606
            ],
            [
              98.99812517258347,
              18.79677874505954
            ],
            [
              99.00555923208303,
              18.796437129540806
            ],
            [
              99.0041187082567,
              18.800993402173265
            ],
            [
              99.00406902643546,
              18.801134716203492
            ],
            [
              99.00377358391482,
              18.801366606002706
            ],
            [
              99.00261327129661,
              18.802008005101726
            ],
            [
              99.00250391301867,
              18.802057981280115
            ],
            [
              99.00217768423104,
              18.802182955209975
            ],
            [
              99.00079247250139,
              18.801649800857327
            ],
            [
              98.99695141636025,
              18.800056282879606
            ]
          ]
        ]
      }
    },
    {
      "type": "Feature",
      "properties": {
        "image_id": "CM_34",
        "polygon_type": "cm34_keep_circle",
        "radius_m": 800.0,
        "description": "Filter circle for retaining CM_34 approximate positions."
      },
      "geometry": {
        "type": "Polygon",
        "coordinates": [
          [
            [
              99.01068246169365,
              18.800519701566767
            ],
            [
              99.01066623652135,
              18.800992586965656
            ],
            [
              99.01061757063243,
              18.801463449223498
            ],
            [
              99.01053667215487,
              18.801930272011145
            ],
            [
              99.0104238872507,
              18.802391056281014
            ],
            [
              99.01027969863809,
              18.802843828827996
            ],
            [
              99.01010472352854,
              18.80328665073997
            ],
            [
              99.00989971098764,
              18.803717625701776
            ],
            [
              99.00966553873101,
              18.804134908116893
            ],
            [
              99.0094032093689,
              18.804536711012247
            ],
            [
              99.00911384611538,
              18.80492131369211
            ],
            [
              99.00879868798071,
              18.805287069108314
            ],
            [
              99.00845908446712,
              18.805632410915244
            ],
            [
              99.00809648979104,
              18.805955860179296
            ],
            [
              99.0077124566562,
              18.806256031714074
            ],
            [
              99.00730862960431,
              18.806531640014157
            ],
            [
              99.00688673797221,
              18.806781504761936
            ],
            [
              99.00644858848484,
              18.807004555884024
            ],
            [
              99.00599605751667,
              18.807199838135404
            ],
            [
              99.00553108305414,
              18.807366515191745
            ],
            [
              99.00505565639384,
              18.807503873232324
            ],
            [
              99.00457181361193,
              18.807611323998152
            ],
            [
              99.00408162684153,
              18.80768840731219
            ],
            [
              99.00358719539538,
              18.8077347930509
            ],
            [
              99.00309063677176,
              18.80775028255853
            ],
            [
              99.00259407758247,
              18.80773480949826
            ],
            [
              99.00209964444181,
              18.807688440136403
            ],
            [
              99.00160945485534,
              18.807611373058474
            ],
            [
              99.00112560814785,
              18.807503938318426
            ],
            [
              99.00065017646929,
              18.807366596024586
            ],
            [
              99.00018519591745,
              18.807199934368438
            ],
            [
              98.99973265781502,
              18.807004667104692
            ],
            [
              98.99929450017905,
              18.806781630493443
            ],
            [
              98.99887259941899,
              18.806531779717535
            ],
            [
              98.99846876229901,
              18.806256184790474
            ],
            [
              98.99808471819907,
              18.805956025972584
            ],
            [
              98.997722111708,
              18.8056325887148
            ],
            [
              98.99738249558021,
              18.805287258152113
            ],
            [
              98.99706732408623,
              18.80492151316997
            ],
            [
              98.99677794678563,
              18.804536920069335
            ],
            [
              98.99651560274886,
              18.80413512585738
            ],
            [
              98.996281415253,
              18.80371785119269
            ],
            [
              98.99607638697356,
              18.8032868830152
            ],
            [
              98.99590139569368,
              18.802844066892423
            ],
            [
              98.99575719054826,
              18.802391299114813
            ],
            [
              98.9956443888196,
              18.801930518574125
            ],
            [
              98.99556347329802,
              18.80146369845958
            ],
            [
              98.99551479021855,
              18.800992837807417
            ],
            [
              98.9954985477828,
              18.80051995293996
            ],
            [
              98.99551481527196,
              18.800047068831105
            ],
            [
              98.99556352275472,
              18.799576210434783
            ],
            [
              98.99564446139142,
              18.7991093940141
            ],
            [
              98.9957572843329,
              18.79864861850768
            ],
            [
              98.99590150821011,
              18.7981958569707
            ],
            [
              98.99607651520823,
              18.797753048126886
            ],
            [
              98.99628155571604,
              18.79732208806782
            ],
            [
              98.99651575153935,
              18.79690482213501
            ],
            [
              98.99677809966472,
              18.79650303701952
            ],
            [
              98.99706747655704,
              18.79611845311285
            ],
            [
              98.99738264297264,
              18.795752717141973
            ],
            [
              98.99772224926765,
              18.79540739511978
            ],
            [
              98.99808484117801,
              18.795083965641354
            ],
            [
              98.99846886604738,
              18.79478381355455
            ],
            [
              98.99887267947537,
              18.794508224032032
            ],
            [
              98.99929455235835,
              18.794258377070115
            ],
            [
              98.9997326782921,
              18.794035342437873
            ],
            [
              99.00018518130523,
              18.793840075098164
            ],
            [
              99.00065012388956,
              18.793673411120196
            ],
            [
              99.001125515294,
              18.7935360641009
            ],
            [
              99.00160932004559,
              18.793428622110696
            ],
            [
              99.0020994666619,
              18.79335154517646
            ],
            [
              99.00259385651728,
              18.793305163312585
            ],
            [
              99.00309037282508,
              18.793289675108507
            ],
            [
              99.0035868896975,
              18.793305146878758
            ],
            [
              99.00408128124431,
              18.79335151237909
            ],
            [
              99.00457143067166,
              18.79342857309006
            ],
            [
              99.00505523934187,
              18.79353599906666
            ],
            [
              99.00553063575578,
              18.793673330350497
            ],
            [
              99.00599558441907,
              18.793839978938472
            ],
            [
              99.00644809455461,
              18.79403523129949
            ],
            [
              99.00688622862388,
              18.79425825142843
            ],
            [
              99.00730811062067,
              18.794508084424475
            ],
            [
              99.00771193410188,
              18.794783660578336
            ],
            [
              99.00809596992087,
              18.7950837999509
            ],
            [
              99.00845857363052,
              18.79540721742395
            ],
            [
              99.00879819252401,
              18.79575252820101
            ],
            [
              99.0091133722835,
              18.79611825373518
            ],
            [
              99.00940276320799,
              18.796502828058248
            ],
            [
              99.00966512599388,
              18.796904604484343
            ],
            [
              99.00989933704336,
              18.79732186265919
            ],
            [
              99.01010439327784,
              18.797752815925
            ],
            [
              99.0102794164359,
              18.798195618969412
            ],
            [
              99.0104236568372,
              18.798648375725744
            ],
            [
              99.01053649659617,
              18.799109147490807
            ],
            [
              99.01061745227183,
              18.799575961225543
            ],
            [
              99.01066617694207,
              18.800046818002883
            ],
            [
              99.01068246169365,
              18.800519701566767
            ]
          ]
        ]
      }
    }
  ]
}